{"type": "FeatureCollection", "features": [ {"type": "Feature", "properties": {"norad_id": 32460, "name": "FENGYUN 1C DEB", "group": "fengyun-1c-debris", "lat": 59.27324654304638, "lon": 119.42457481127838, "alt_km": 854.1074969276178, "timestamp": "2025-12-14T03:55:53.073940+00:00", "meta": {"OBJECT_NAME": "FENGYUN 1C DEB", "OBJECT_ID": "1999-025DBY", "EPOCH": "2025-12-12T08:26:22.172064", "MEAN_MOTION": 13.89573263, "ECCENTRICITY": 0.01860518, "INCLINATION": 98.016, "RA_OF_ASC_NODE": 131.576, "ARG_OF_PERICENTER": 125.1777, "MEAN_ANOMALY": 236.6969, "EPHEMERIS_TYPE": 0, "CLASSIFICATION_TYPE": "U", "NORAD_CAT_ID": 32460, "ELEMENT_SET_NO": 999, "REV_AT_EPOCH": 65248, "BSTAR": 0.0018227825, "MEAN_MOTION_DOT": 2.53e-05, "MEAN_MOTION_DDOT": 0}, "tle": {"line1": "1 32460U 99025DBY 25346.35164551  .00002530  00000+0  18228-2 0  9992", "line2": "2 32460  98.0160 131.5760 0186051 125.1777 236.6969 13.89573263652488"}}, "geometry": {"type": "Point", "coordinates": [119.42457481127838, 59.27324654304638]}}, {"type": "Feature", "properties": {"norad_id": 32461, "name": "FENGYUN 1C DEB", "group": "fengyun-1c-debris", "lat": 73.72103888843536, "lon": 173.02217385436052, "alt_km": 844.7762270892244, "timestamp": "2025-12-14T03:55:53.073950+00:00", "meta": {"OBJECT_NAME": "FENGYUN 1C DEB", "OBJECT_ID": "1999-025DBZ", "EPOCH": "2025-12-06T13:47:26.922624", "MEAN_MOTION": 13.72810321, "ECCENTRICITY": 0.02320135, "INCLINATION": 98.3348, "RA_OF_ASC_NODE": 196.5399, "ARG_OF_PERICENTER": 133.6429, "MEAN_ANOMALY": 257.3138, "EPHEMERIS_TYPE": 0, "CLASSIFICATION_TYPE": "U", "NORAD_CAT_ID": 32461, "ELEMENT_SET_NO": 999, "REV_AT_EPOCH": 67210, "BSTAR": 0.001699488, "MEAN_MOTION_DOT": 1.863e-05, "MEAN_MOTION_DDOT": 0}, "tle": {"line1": "1 32461U 99025DBZ 25340.57461716  .00001863  00000+0  16995-2 0  9991", "line2": "2 32461  98.3348 196.5399 0232013 133.6429 257.3138 13.72810321672107"}}, "geometry": {"type": "Point", "coordinates": [173.02217385436052, 73.72103888843536]}}, {"type": "Feature", "properties": {"norad_id": 32464, "name": "FENGYUN 1C DEB", "group": "fengyun-1c-debris", "lat": 52.84363673406794, "lon": 2.575440469246435, "alt_km": 661.948733774333, "timestamp": "2025-12-14T03:55:53.073961+00:00", "meta": {"OBJECT_NAME": "FENGYUN 1C DEB", "OBJECT_ID": "1999-025DCC", "EPOCH": "2025-12-12T19:31:00.588864", "MEAN_MOTION": 14.92934865, "ECCENTRICITY": 0.01124691, "INCLINATION": 97.3566, "RA_OF_ASC_NODE": 11.1277, "ARG_OF_PERICENTER": 235.8562, "MEAN_ANOMALY": 123.1952, "EPHEMERIS_TYPE": 0, "CLASSIFICATION_TYPE": "U", "NORAD_CAT_ID": 32464, "ELEMENT_SET_NO": 999, "REV_AT_EPOCH": 60793, "BSTAR": 0.0019159715, "MEAN_MOTION_DOT": 0.00022495, "MEAN_MOTION_DDOT": 0}, "tle": {"line1": "1 32464U 99025DCC 25346.81320126  .00022495  00000+0  19160-2 0  9997", "line2": "2 32464  97.3566  11.1277 0112469 235.8562 123.1952 14.92934865607939"}}, "geometry": {"type": "Point", "coordinates": [2.575440469246435, 52.84363673406794]}}, {"type": "Feature", "properties": {"norad_id": 33502, "name": "FENGYUN 1C DEB", "group": "fengyun-1c-debris", "lat": -71.74170161043335, "lon": -40.24623272970855, "alt_km": 867.8831597008038, "timestamp": "2025-12-14T03:55:53.073971+00:00", "meta": {"OBJECT_NAME": "FENGYUN 1C DEB", "OBJECT_ID": "1999-025DCF", "EPOCH": "2025-12-12T18:46:51.521664", "MEAN_MOTION": 14.21865192, "ECCENTRICITY": 0.00792205, "INCLINATION": 99.0251, "RA_OF_ASC_NODE": 289.5414, "ARG_OF_PERICENTER": 152.6898, "MEAN_ANOMALY": 266.2439, "EPHEMERIS_TYPE": 0, "CLASSIFICATION_TYPE": "U", "NORAD_CAT_ID": 33502, "ELEMENT_SET_NO": 999, "REV_AT_EPOCH": 86956, "BSTAR": 0.0035059315, "MEAN_MOTION_DOT": 7.939e-05, "MEAN_MOTION_DDOT": 0}, "tle": {"line1": "1 33502U 99025DCF 25346.78254076  .00007939  00000+0  35059-2 0  9998", "line2": "2 33502  99.0251 289.5414 0079220 152.6898 266.2439 14.21865192869568"}}, "geometry": {"type": "Point", "coordinates": [-40.24623272970855, -71.74170161043335]}}, {"type": "Feature", "properties": {"norad_id": 33599, "name": "FENGYUN 1C DEB", "group": "fengyun-1c-debris", "lat": -27.70737714281552, "lon": 59.23321631321507, "alt_km": 456.0529596612814, "timestamp": "2025-12-14T03:55:53.073981+00:00", "meta": {"OBJECT_NAME": "FENGYUN 1C DEB", "OBJECT_ID": "1999-025DCG", "EPOCH": "2025-12-06T10:36:41.156064", "MEAN_MOTION": 15.14898296, "ECCENTRICITY": 0.0126212, "INCLINATION": 96.6136, "RA_OF_ASC_NODE": 49.0151, "ARG_OF_PERICENTER": 322.3863, "MEAN_ANOMALY": 36.8593, "EPHEMERIS_TYPE": 0, "CLASSIFICATION_TYPE": "U", "NORAD_CAT_ID": 33599, "ELEMENT_SET_NO": 999, "REV_AT_EPOCH": 65908, "BSTAR": 0.0016783, "MEAN_MOTION_DOT": 0.00038297, "MEAN_MOTION_DDOT": 0}, "tle": {"line1": "1 33599U 99025DCG 25340.44214301  .00038297  00000+0  16783-2 0  9992", "line2": "2 33599  96.6136  49.0151 0126212 322.3863  36.8593 15.14898296659088"}}, "geometry": {"type": "Point", "coordinates": [59.23321631321507, -27.70737714281552]}}, {"type": "Feature", "properties": {"norad_id": 33601, "name": "FENGYUN 1C DEB", "group": "fengyun-1c-debris", "lat": -70.5948437771376, "lon": -60.28737498485557, "alt_km": 918.8286727831055, "timestamp": "2025-12-14T03:55:53.073992+00:00", "meta": {"OBJECT_NAME": "FENGYUN 1C DEB", "OBJECT_ID": "1999-025DCJ", "EPOCH": "2025-12-11T21:52:31.503072", "MEAN_MOTION": 14.07910146, "ECCENTRICITY": 0.0158394, "INCLINATION": 98.3156, "RA_OF_ASC_NODE": 142.168, "ARG_OF_PERICENTER": 144.8361, "MEAN_ANOMALY": 216.3387, "EPHEMERIS_TYPE": 0, "CLASSIFICATION_TYPE": "U", "NORAD_CAT_ID": 33601, "ELEMENT_SET_NO": 999, "REV_AT_EPOCH": 90668, "BSTAR": 0.0018661, "MEAN_MOTION_DOT": 3.516e-05, "MEAN_MOTION_DDOT": 0}, "tle": {"line1": "1 33601U 99025DCJ 25345.91147573  .00003516  00000+0  18661-2 0  9992", "line2": "2 33601  98.3156 142.1680 0158394 144.8361 216.3387 14.07910146906688"}}, "geometry": {"type": "Point", "coordinates": [-60.28737498485557, -70.5948437771376]}}, {"type": "Feature", "properties": {"norad_id": 33603, "name": "FENGYUN 1C DEB", "group": "fengyun-1c-debris", "lat": -67.94996409801287, "lon": -53.5125261942196, "alt_km": 749.5729678928401, "timestamp": "2025-12-14T03:55:53.074002+00:00", "meta": {"OBJECT_NAME": "FENGYUN 1C DEB", "OBJECT_ID": "1999-025DCL", "EPOCH": "2025-12-13T02:17:10.572864", "MEAN_MOTION": 14.79923339, "ECCENTRICITY": 0.02205536, "INCLINATION": 98.8044, "RA_OF_ASC_NODE": 282.8178, "ARG_OF_PERICENTER": 71.4403, "MEAN_ANOMALY": 291.0626, "EPHEMERIS_TYPE": 0, "CLASSIFICATION_TYPE": "U", "NORAD_CAT_ID": 33603, "ELEMENT_SET_NO": 999, "REV_AT_EPOCH": 98865, "BSTAR": 0.0003351513, "MEAN_MOTION_DOT": 3.761e-05, "MEAN_MOTION_DDOT": 0}, "tle": {"line1": "1 33603U 99025DCL 25347.09526126  .00003761  00000+0  33515-3 0  9998", "line2": "2 33603  98.8044 282.8178 0220553  71.4403 291.0626 14.79923339988654"}}, "geometry": {"type": "Point", "coordinates": [-53.5125261942196, -67.94996409801287]}}, {"type": "Feature", "properties": {"norad_id": 33605, "name": "FENGYUN 1C DEB", "group": "fengyun-1c-debris", "lat": -5.521235868589802, "lon": 166.28311148033384, "alt_km": 887.5403531349348, "timestamp": "2025-12-14T03:55:53.074013+00:00", "meta": {"OBJECT_NAME": "FENGYUN 1C DEB", "OBJECT_ID": "1999-025DCN", "EPOCH": "2025-12-10T07:01:31.719072", "MEAN_MOTION": 14.0776111, "ECCENTRICITY": 0.0057186, "INCLINATION": 98.6977, "RA_OF_ASC_NODE": 343.4026, "ARG_OF_PERICENTER": 81.9564, "MEAN_ANOMALY": 295.3635, "EPHEMERIS_TYPE": 0, "CLASSIFICATION_TYPE": "U", "NORAD_CAT_ID": 33605, "ELEMENT_SET_NO": 999, "REV_AT_EPOCH": 59784, "BSTAR": 0.00085517, "MEAN_MOTION_DOT": 1.428e-05, "MEAN_MOTION_DDOT": 0}, "tle": {"line1": "1 33605U 99025DCN 25344.29272823  .00001428  00000+0  85517-3 0  9998", "line2": "2 33605  98.6977 343.4026 0057186  81.9564 295.3635 14.07761110597841"}}, "geometry": {"type": "Point", "coordinates": [166.28311148033384, -5.521235868589802]}}, {"type": "Feature", "properties": {"norad_id": 33612, "name": "FENGYUN 1C DEB", "group": "fengyun-1c-debris", "lat": 48.546998064969365, "lon": 147.16731111581606, "alt_km": 802.3828540055674, "timestamp": "2025-12-14T03:55:53.074023+00:00", "meta": {"OBJECT_NAME": "FENGYUN 1C DEB", "OBJECT_ID": "1999-025DCV", "EPOCH": "2025-12-11T08:37:10.072704", "MEAN_MOTION": 14.04064661, "ECCENTRICITY": 0.01115264, "INCLINATION": 98.5993, "RA_OF_ASC_NODE": 314.6478, "ARG_OF_PERICENTER": 112.4468, "MEAN_ANOMALY": 248.8556, "EPHEMERIS_TYPE": 0, "CLASSIFICATION_TYPE": "U", "NORAD_CAT_ID": 33612, "ELEMENT_SET_NO": 999, "REV_AT_EPOCH": 56654, "BSTAR": 0.0026606342, "MEAN_MOTION_DOT": 4.413e-05, "MEAN_MOTION_DDOT": 0}, "tle": {"line1": "1 33612U 99025DCV 25345.35914436  .00004413  00000+0  26606-2 0  9997", "line2": "2 33612  98.5993 314.6478 0111526 112.4468 248.8556 14.04064661566541"}}, "geometry": {"type": "Point", "coordinates": [147.16731111581606, 48.546998064969365]}}, {"type": "Feature", "properties": {"norad_id": 33613, "name": "FENGYUN 1C DEB", "group": "fengyun-1c-debris", "lat": 60.88182023872648, "lon": 43.929962894731176, "alt_km": 754.6344344709705, "timestamp": "2025-12-14T03:55:53.074033+00:00", "meta": {"OBJECT_NAME": "FENGYUN 1C DEB", "OBJECT_ID": "1999-025DCW", "EPOCH": "2025-12-07T22:31:03.844416", "MEAN_MOTION": 14.3311819, "ECCENTRICITY": 0.00307976, "INCLINATION": 98.6971, "RA_OF_ASC_NODE": 53.6298, "ARG_OF_PERICENTER": 102.5021, "MEAN_ANOMALY": 257.9611, "EPHEMERIS_TYPE": 0, "CLASSIFICATION_TYPE": "U", "NORAD_CAT_ID": 33613, "ELEMENT_SET_NO": 999, "REV_AT_EPOCH": 64441, "BSTAR": 0.0026839332, "MEAN_MOTION_DOT": 7.364e-05, "MEAN_MOTION_DDOT": 0}, "tle": {"line1": "1 33613U 99025DCW 25341.93823894  .00007364  00000+0  26839-2 0  9991", "line2": "2 33613  98.6971  53.6298 0030797 102.5021 257.9611 14.33118190644419"}}, "geometry": {"type": "Point", "coordinates": [43.929962894731176, 60.88182023872648]}}]}